{"fetched_at":"2026-04-01T16:59:04Z","count":11445,"tles":[{"name":"STARLINK-37143","line1":"1 68336U 26059R   26090.66668981 -.00533465  00000+0 -28225-2 0  9993","line2":"2 68336  53.1595 252.6202 0000786  73.5208 199.0079 15.81230453  2572","category":"Starlink"}]}